CCSDS_OMM_VERS = 2.0
CREATION_DATE  = 
ORIGINATOR     = 

OBJECT_NAME    = STARLINK-36212
OBJECT_ID      = 2025-304AA
CENTER_NAME    = EARTH
REF_FRAME      = TEME
TIME_SYSTEM    = UTC
MEAN_ELEMENT_THEORY = SGP/SGP4

EPOCH          = 2026-01-03T07:50:23.843904
MEAN_MOTION    = 15.60730415
ECCENTRICITY   = .0005884
INCLINATION    = 69.9998
RA_OF_ASC_NODE = 346.4828
ARG_OF_PERICENTER = 231.3386
MEAN_ANOMALY   = 128.7279

EPHEMERIS_TYPE = 0
CLASSIFICATION_TYPE = U
NORAD_CAT_ID   = 67216
ELEMENT_SET_NO = 999
REV_AT_EPOCH   = 391
BSTAR          = -.31647E-1
MEAN_MOTION_DOT = -.2327924E-1
MEAN_MOTION_DDOT = 0

CCSDS_OMM_VERS = 2.0
CREATION_DATE  = 
ORIGINATOR     = 

OBJECT_NAME    = STARLINK-36216
OBJECT_ID      = 2025-304AB
CENTER_NAME    = EARTH
REF_FRAME      = TEME
TIME_SYSTEM    = UTC
MEAN_ELEMENT_THEORY = SGP/SGP4

EPOCH          = 2026-01-03T23:14:51.787680
MEAN_MOTION    = 15.57000327
ECCENTRICITY   = .00064529
INCLINATION    = 69.9979
RA_OF_ASC_NODE = 344.7082
ARG_OF_PERICENTER = 324.0861
MEAN_ANOMALY   = 35.9894

EPHEMERIS_TYPE = 0
CLASSIFICATION_TYPE = U
NORAD_CAT_ID   = 67217
ELEMENT_SET_NO = 999
REV_AT_EPOCH   = 401
BSTAR          = -.7883778E-2
MEAN_MOTION_DOT = -.53571E-2
MEAN_MOTION_DDOT = 0

CCSDS_OMM_VERS = 2.0
CREATION_DATE  = 
ORIGINATOR     = 

OBJECT_NAME    = STARLINK-36211
OBJECT_ID      = 2025-304AC
CENTER_NAME    = EARTH
REF_FRAME      = TEME
TIME_SYSTEM    = UTC
MEAN_ELEMENT_THEORY = SGP/SGP4

EPOCH          = 2026-01-02T22:36:32.962752
MEAN_MOTION    = 15.61795826
ECCENTRICITY   = .0003218
INCLINATION    = 69.9999
RA_OF_ASC_NODE = 347.5496
ARG_OF_PERICENTER = 249.2164
MEAN_ANOMALY   = 110.8683

EPHEMERIS_TYPE = 0
CLASSIFICATION_TYPE = U
NORAD_CAT_ID   = 67218
ELEMENT_SET_NO = 999
REV_AT_EPOCH   = 382
BSTAR          = -.11889E-1
MEAN_MOTION_DOT = -.937957E-2
MEAN_MOTION_DDOT = 0

CCSDS_OMM_VERS = 2.0
CREATION_DATE  = 
ORIGINATOR     = 

OBJECT_NAME    = DISKSAT A
OBJECT_ID      = 2025-305A
CENTER_NAME    = EARTH
REF_FRAME      = TEME
TIME_SYSTEM    = UTC
MEAN_ELEMENT_THEORY = SGP/SGP4

EPOCH          = 2025-12-20T09:08:30.149664
MEAN_MOTION    = 15.05762698
ECCENTRICITY   = .0003912
INCLINATION    = 45.0057
RA_OF_ASC_NODE = 310.0654
ARG_OF_PERICENTER = 276.1097
MEAN_ANOMALY   = 83.9332

EPHEMERIS_TYPE = 0
CLASSIFICATION_TYPE = U
NORAD_CAT_ID   = 67219
ELEMENT_SET_NO = 999
REV_AT_EPOCH   = 33
BSTAR          = .50887E-4
MEAN_MOTION_DOT = .51E-5
MEAN_MOTION_DDOT = 0

CCSDS_OMM_VERS = 2.0
CREATION_DATE  = 
ORIGINATOR     = 

OBJECT_NAME    = DISKSAT B
OBJECT_ID      = 2025-305B
CENTER_NAME    = EARTH
REF_FRAME      = TEME
TIME_SYSTEM    = UTC
MEAN_ELEMENT_THEORY = SGP/SGP4

EPOCH          = 2025-12-20T05:57:31.803264
MEAN_MOTION    = 15.05702195
ECCENTRICITY   = .0004681
INCLINATION    = 45.0108
RA_OF_ASC_NODE = 310.7693
ARG_OF_PERICENTER = 270.4757
MEAN_ANOMALY   = 89.5581

EPHEMERIS_TYPE = 0
CLASSIFICATION_TYPE = U
NORAD_CAT_ID   = 67220
ELEMENT_SET_NO = 999
REV_AT_EPOCH   = 31
BSTAR          = .51086E-4
MEAN_MOTION_DOT = .511E-5
MEAN_MOTION_DDOT = 0

CCSDS_OMM_VERS = 2.0
CREATION_DATE  = 
ORIGINATOR     = 

OBJECT_NAME    = DISKSAT C
OBJECT_ID      = 2025-305C
CENTER_NAME    = EARTH
REF_FRAME      = TEME
TIME_SYSTEM    = UTC
MEAN_ELEMENT_THEORY = SGP/SGP4

EPOCH          = 2025-12-20T07:33:11.308608
MEAN_MOTION    = 15.05653670
ECCENTRICITY   = .00043877
INCLINATION    = 45.0067
RA_OF_ASC_NODE = 310.4143
ARG_OF_PERICENTER = 282.7791
MEAN_ANOMALY   = 77.2594

EPHEMERIS_TYPE = 0
CLASSIFICATION_TYPE = U
NORAD_CAT_ID   = 67221
ELEMENT_SET_NO = 999
REV_AT_EPOCH   = 31
BSTAR          = .10190761E-3
MEAN_MOTION_DOT = .1256E-4
MEAN_MOTION_DDOT = 0

CCSDS_OMM_VERS = 2.0
CREATION_DATE  = 
ORIGINATOR     = 

OBJECT_NAME    = DISKSAT D
OBJECT_ID      = 2025-305D
CENTER_NAME    = EARTH
REF_FRAME      = TEME
TIME_SYSTEM    = UTC
MEAN_ELEMENT_THEORY = SGP/SGP4

EPOCH          = 2025-12-20T07:33:21.625632
MEAN_MOTION    = 15.05567005
ECCENTRICITY   = .00044772
INCLINATION    = 45.0056
RA_OF_ASC_NODE = 310.4150
ARG_OF_PERICENTER = 287.6101
MEAN_ANOMALY   = 72.4284

EPHEMERIS_TYPE = 0
CLASSIFICATION_TYPE = U
NORAD_CAT_ID   = 67222
ELEMENT_SET_NO = 999
REV_AT_EPOCH   = 31
BSTAR          = .10184381E-3
MEAN_MOTION_DOT = .1252E-4
MEAN_MOTION_DDOT = 0

CCSDS_OMM_VERS = 2.0
CREATION_DATE  = 
ORIGINATOR     = 

OBJECT_NAME    = ELECTRON KICK STAGE R/B
OBJECT_ID      = 2025-305E
CENTER_NAME    = EARTH
REF_FRAME      = TEME
TIME_SYSTEM    = UTC
MEAN_ELEMENT_THEORY = SGP/SGP4

EPOCH          = 2025-12-23T06:58:48.011808
MEAN_MOTION    = 15.48545747
ECCENTRICITY   = .017749
INCLINATION    = 44.9877
RA_OF_ASC_NODE = 292.9264
ARG_OF_PERICENTER = 166.6089
MEAN_ANOMALY   = 193.9601

EPHEMERIS_TYPE = 0
CLASSIFICATION_TYPE = U
NORAD_CAT_ID   = 67223
ELEMENT_SET_NO = 999
REV_AT_EPOCH   = 79
BSTAR          = .18366E-3
MEAN_MOTION_DOT = .18707E-3
MEAN_MOTION_DDOT = 0

CCSDS_OMM_VERS = 2.0
CREATION_DATE  = 
ORIGINATOR     = 

OBJECT_NAME    = ELECTRON R/B
OBJECT_ID      = 2025-305F
CENTER_NAME    = EARTH
REF_FRAME      = TEME
TIME_SYSTEM    = UTC
MEAN_ELEMENT_THEORY = SGP/SGP4

EPOCH          = 2025-12-30T15:01:41.219328
MEAN_MOTION    = 15.89429426
ECCENTRICITY   = .01727903
INCLINATION    = 44.9990
RA_OF_ASC_NODE = 248.6775
ARG_OF_PERICENTER = 350.9028
MEAN_ANOMALY   = 8.8762

EPHEMERIS_TYPE = 0
CLASSIFICATION_TYPE = U
NORAD_CAT_ID   = 67224
ELEMENT_SET_NO = 999
REV_AT_EPOCH   = 195
BSTAR          = .30408112E-3
MEAN_MOTION_DOT = .377813E-2
MEAN_MOTION_DDOT = .9414958E-5

CCSDS_OMM_VERS = 2.0
CREATION_DATE  = 
ORIGINATOR     = 

OBJECT_NAME    = TJS-23
OBJECT_ID      = 2025-306A
CENTER_NAME    = EARTH
REF_FRAME      = TEME
TIME_SYSTEM    = UTC
MEAN_ELEMENT_THEORY = SGP/SGP4

EPOCH          = 2026-01-03T01:21:26.771904
MEAN_MOTION    = 1.00276117
ECCENTRICITY   = .00010556
INCLINATION    = 5.9639
RA_OF_ASC_NODE = 298.3477
ARG_OF_PERICENTER = 286.8507
MEAN_ANOMALY   = 73.3659

EPHEMERIS_TYPE = 0
CLASSIFICATION_TYPE = U
NORAD_CAT_ID   = 67226
ELEMENT_SET_NO = 999
REV_AT_EPOCH   = 23
BSTAR          = 0
MEAN_MOTION_DOT = .29E-6
MEAN_MOTION_DDOT = 0

CCSDS_OMM_VERS = 2.0
CREATION_DATE  = 
ORIGINATOR     = 

OBJECT_NAME    = CZ-5 R/B
OBJECT_ID      = 2025-306B
CENTER_NAME    = EARTH
REF_FRAME      = TEME
TIME_SYSTEM    = UTC
MEAN_ELEMENT_THEORY = SGP/SGP4

EPOCH          = 2026-01-02T05:45:14.889024
MEAN_MOTION    = 1.92311739
ECCENTRICITY   = .7582788
INCLINATION    = 16.3556
RA_OF_ASC_NODE = 294.8442
ARG_OF_PERICENTER = 186.5720
MEAN_ANOMALY   = 149.5922

EPHEMERIS_TYPE = 0
CLASSIFICATION_TYPE = U
NORAD_CAT_ID   = 67227
ELEMENT_SET_NO = 999
REV_AT_EPOCH   = 26
BSTAR          = .95745E-3
MEAN_MOTION_DOT = .3994E-4
MEAN_MOTION_DDOT = 0

CCSDS_OMM_VERS = 2.0
CREATION_DATE  = 
ORIGINATOR     = 

OBJECT_NAME    = QPS-SAR-15
OBJECT_ID      = 2025-307A
CENTER_NAME    = EARTH
REF_FRAME      = TEME
TIME_SYSTEM    = UTC
MEAN_ELEMENT_THEORY = SGP/SGP4

EPOCH          = 2026-01-03T12:10:54.631200
MEAN_MOTION    = 14.97242489
ECCENTRICITY   = .00091378
INCLINATION    = 42.0078
RA_OF_ASC_NODE = 51.1348
ARG_OF_PERICENTER = 348.3035
MEAN_ANOMALY   = 11.7577

EPHEMERIS_TYPE = 0
CLASSIFICATION_TYPE = U
NORAD_CAT_ID   = 67228
ELEMENT_SET_NO = 999
REV_AT_EPOCH   = 198
BSTAR          = .76352852E-3
MEAN_MOTION_DOT = .8822E-4
MEAN_MOTION_DDOT = 0

