STARLINK-36212          
1 67216U 25304AA  26003.32666486 -.02327924  00000+0 -31647-1 0  9990
2 67216  69.9998 346.4828 0005884 231.3386 128.7279 15.60730415  3911
STARLINK-36216          
1 67217U 25304AB  26003.96865495 -.00535710  00000+0 -78838-2 0  9998
2 67217  69.9979 344.7082 0006452 324.0861  35.9894 15.57000327  4016
STARLINK-36211          
1 67218U 25304AC  26002.94204818 -.00937957  00000+0 -11889-1 0  9993
2 67218  69.9999 347.5496 0003218 249.2164 110.8683 15.61795826  3827
DISKSAT A               
1 67219U 25305A   25354.38090451  .00000510  00000+0  50887-4 0  9996
2 67219  45.0057 310.0654 0003912 276.1097  83.9332 15.05762698   337
DISKSAT B               
1 67220U 25305B   25354.24828476  .00000511  00000+0  51086-4 0  9992
2 67220  45.0108 310.7693 0004681 270.4757  89.5581 15.05702195   312
DISKSAT C               
1 67221U 25305C   25354.31471422  .00001256  00000+0  10191-3 0  9994
2 67221  45.0067 310.4143 0004387 282.7791  77.2594 15.05653670   312
DISKSAT D               
1 67222U 25305D   25354.31483363  .00001252  00000+0  10184-3 0  9990
2 67222  45.0056 310.4150 0004477 287.6101  72.4284 15.05567005   317
ELECTRON KICK STAGE R/B 
1 67223U 25305E   25357.29083347  .00018707  00000+0  18366-3 0  9992
2 67223  44.9877 292.9264 0177490 166.6089 193.9601 15.48545747   794
ELECTRON R/B            
1 67224U 25305F   25364.62617152  .00377813  94150-5  30408-3 0  9997
2 67224  44.9990 248.6775 0172790 350.9028   8.8762 15.89429426  1956
TJS-23                  
1 67226U 25306A   26003.05655986  .00000029  00000+0  00000+0 0  9993
2 67226   5.9639 298.3477 0001055 286.8507  73.3659  1.00276117   237
CZ-5 R/B                
1 67227U 25306B   26002.23975566  .00003994  00000+0  95745-3 0  9990
2 67227  16.3556 294.8442 7582788 186.5720 149.5922  1.92311739   265
QPS-SAR-15              
1 67228U 25307A   26003.50757675  .00008822  00000+0  76353-3 0  9991
2 67228  42.0078  51.1348 0009137 348.3035  11.7577 14.97242489  1982
